[
    {
        "CCSDS_OMM_VERS": "3.0",
        "COMMENT": "GENERATED VIA SPACE-TRACK.ORG API",
        "CREATION_DATE": "2025-05-04T02:26:54",
        "ORIGINATOR": "18 SPCS",
        "OBJECT_NAME": "BEIDOU 5",
        "OBJECT_ID": "2010-036A",
        "CENTER_NAME": "EARTH",
        "REF_FRAME": "TEME",
        "TIME_SYSTEM": "UTC",
        "MEAN_ELEMENT_THEORY": "SGP4",
        "EPOCH": "2025-05-03T16:56:57.765696",
        "MEAN_MOTION": "1.00290233",
        "ECCENTRICITY": "0.00492510",
        "INCLINATION": "54.2674",
        "RA_OF_ASC_NODE": "166.6617",
        "ARG_OF_PERICENTER": "216.9107",
        "MEAN_ANOMALY": "198.5692",
        "EPHEMERIS_TYPE": "0",
        "CLASSIFICATION_TYPE": "U",
        "NORAD_CAT_ID": "36828",
        "ELEMENT_SET_NO": "999",
        "REV_AT_EPOCH": "5399",
        "BSTAR": "0.00000000000000",
        "MEAN_MOTION_DOT": "-0.00000097",
        "MEAN_MOTION_DDOT": "0.0000000000000",
        "SEMIMAJOR_AXIS": "42159.561",
        "PERIOD": "1435.833",
        "APOAPSIS": "35989.066",
        "PERIAPSIS": "35573.786",
        "OBJECT_TYPE": "PAYLOAD",
        "RCS_SIZE": "LARGE",
        "COUNTRY_CODE": "PRC",
        "LAUNCH_DATE": "2010-07-31",
        "SITE": "XSC",
        "DECAY_DATE": null,
        "FILE": "4718307",
        "GP_ID": "286795685",
        "TLE_LINE0": "0 BEIDOU 5",
        "TLE_LINE1": "1 36828U 10036A   25123.70622414 -.00000097  00000-0  00000-0 0  9993",
        "TLE_LINE2": "2 36828  54.2674 166.6617 0049251 216.9107 198.5692  1.00290233 53993"
    }
]